0 ATLAS 2 CENTAUR R/B
1 23468U 95003B   13282.00828752  .00004908  00000-0  13119-2 0  1875
2 23468 026.6344 197.4030 6208773 155.5260 021.2173 03.72110598229804
0 ATLAS 2 CENTAUR R/B
1 23468U 95003B   13283.85850834  .00004842  00000-0  13319-2 0  1885
2 23468 026.6349 196.1391 6208430 157.6375 339.7877 03.72134229229877
0 ATLAS 2 CENTAUR R/B
1 23468U 95003B   13284.13529970  .00005101  00000-0  14075-2 0  1891
2 23468 026.6351 195.9497 6208413 157.9555 350.5898 03.72135679229883
0 ATLAS 2 CENTAUR R/B
1 23468U 95003B   13285.21221145  .00004442  00000-0  12582-2 0  1904
2 23468 026.6361 195.2146 6208168 159.1834 353.2993 03.72147864229929
0 ATLAS 2 CENTAUR R/B
1 23468U 95003B   13286.81299588  .00005181  00000-0  14807-2 0  1911
2 23468 026.6356 194.1217 6208016 161.0119 337.9362 03.72161772229989
0 ATLAS 2 CENTAUR R/B
1 23468U 95003B   13288.97137449  .00005344  00000-0  15254-2 0  1926
2 23468 026.6370 192.6486 6207596 163.4772 349.7382 03.72198922230060
0 ATLAS 2 CENTAUR R/B
1 23468U 95003B   13291.12531691  .00005407  00000-0  15167-2 0  1938
2 23468 026.6388 191.1784 6207244 165.9356 355.8689 03.72224037230143
0 ATLAS 2 CENTAUR R/B
1 23468U 95003B   13292.19858999  .00005605  00000-0  15646-2 0  1942
2 23468 026.6404 190.4473 6206937 167.1553 354.0621 03.72234668230182
0 ATLAS 2 CENTAUR R/B
1 23468U 95003B   13293.79792155  .00006001  00000-0  16543-2 0  1959
2 23468 026.6395 189.3557 6206891 168.9826 337.2731 03.72252258230249
0 ATLAS 2 CENTAUR R/B
1 23468U 95003B   13294.07897308  .00005282  00000-0  14561-2 0  1966
2 23468 026.6399 189.1643 6206835 169.3049 353.8870 03.72260523230250
0 ATLAS 2 CENTAUR R/B
1 23468U 95003B   13295.95624149  .00005275  00000-0  14614-2 0  1977
2 23468 026.6390 187.8859 6206632 171.4437 349.6911 03.72283944230324
